SBSS (USA 216)          
1 37168U 10048A   26068.88624904  .00004946  00000+0  24191-3 0  9993
2 37168  97.7474 312.3885 0082264 184.8326 306.5835 15.15724210837421
STARLINK-35201          
1 65664U 25211N   26068.69179024  .00008784  00000+0  61176-3 0  9998
2 65664  97.6020 114.0910 0001210  89.6272 270.5094 15.05678627 27044
